start=new Date('2021-10-31T00:00:00.000Z').valueOf();
sats=[{"OBJECT_ID":"2020-070L","MEAN_MOTION_DDOT":"0.0000000000000","SEMIMAJOR_AXIS":"6925.337","LAUNCH_DATE":"2020-10-06","EPHEMERIS_TYPE":"0","ECCENTRICITY":"0.00018940","OBJECT_TYPE":"PAYLOAD","DECAY_DATE":null,"FILE":"3192905","ARG_OF_PERICENTER":"84.3713","TIME_SYSTEM":"UTC","RA_OF_ASC_NODE":"121.1580","TLE_LINE1":"1 46542U 20070L   21303.18731378 -.00000681  00000-0 -26782-4 0  9993","CENTER_NAME":"EARTH","RCS_SIZE":"LARGE","MEAN_ELEMENT_THEORY":"SGP4","NORAD_CAT_ID":"46542","OBJECT_NAME":"STARLINK-1692","BSTAR":"-0.00002678200000","CLASSIFICATION_TYPE":"U","ELEMENT_SET_NO":"999","PERIOD":"95.592","PERIAPSIS":"545.890","MEAN_MOTION_DOT":"-0.00000681","INCLINATION":"53.0533","EPOCH":"2021-10-30T04:29:43.910592","APOAPSIS":"548.514","COUNTRY_CODE":"US","GP_ID":"188515780","MEAN_MOTION":"15.06403786","TLE_LINE2":"2 46542  53.0533 121.1580 0001894  84.3713 275.7492 15.06403786 59626","REV_AT_EPOCH":"5962","SITE":"AFETR","REF_FRAME":"TEME","MEAN_ANOMALY":"275.7492"},{"ECCENTRICITY":"0.00014350","OBJECT_TYPE":"PAYLOAD","DECAY_DATE":null,"OBJECT_ID":"2020-070M","MEAN_MOTION_DDOT":"0.0000000000000","LAUNCH_DATE":"2020-10-06","SEMIMAJOR_AXIS":"6925.338","EPHEMERIS_TYPE":"0","CENTER_NAME":"EARTH","RCS_SIZE":"LARGE","NORAD_CAT_ID":"46543","MEAN_ELEMENT_THEORY":"SGP4","ARG_OF_PERICENTER":"87.8425","FILE":"3192905","RA_OF_ASC_NODE":"120.9152","TIME_SYSTEM":"UTC","TLE_LINE1":"1 46543U 20070M   21303.23891809  .00000387  00000-0  44891-4 0  9998","ELEMENT_SET_NO":"999","PERIOD":"95.592","MEAN_MOTION_DOT":"0.00000387","PERIAPSIS":"546.209","EPOCH":"2021-10-30T05:44:02.522976","INCLINATION":"53.0538","OBJECT_NAME":"STARLINK-1693","BSTAR":"0.00004489100000","CLASSIFICATION_TYPE":"U","MEAN_MOTION":"15.06403485","TLE_LINE2":"2 46543  53.0538 120.9152 0001435  87.8425 272.2728 15.06403485 59634","REV_AT_EPOCH":"5963","SITE":"AFETR","REF_FRAME":"TEME","MEAN_ANOMALY":"272.2728","APOAPSIS":"548.197","COUNTRY_CODE":"US","GP_ID":"188514530"},{"DECAY_DATE":null,"OBJECT_TYPE":"PAYLOAD","ECCENTRICITY":"0.00014810","EPHEMERIS_TYPE":"0","LAUNCH_DATE":"2020-10-06","SEMIMAJOR_AXIS":"6925.346","MEAN_MOTION_DDOT":"0.0000000000000","OBJECT_ID":"2020-070N","MEAN_ELEMENT_THEORY":"SGP4","NORAD_CAT_ID":"46544","RCS_SIZE":"LARGE","CENTER_NAME":"EARTH","TLE_LINE1":"1 46544U 20070N   21303.56650296  .00001354  00000-0  10978-3 0  9991","RA_OF_ASC_NODE":"104.4450","TIME_SYSTEM":"UTC","ARG_OF_PERICENTER":"92.0038","FILE":"3193258","INCLINATION":"53.0547","EPOCH":"2021-10-30T13:35:45.855744","MEAN_MOTION_DOT":"0.00001354","PERIAPSIS":"546.186","PERIOD":"95.592","ELEMENT_SET_NO":"999","CLASSIFICATION_TYPE":"U","BSTAR":"0.00010978000000","OBJECT_NAME":"STARLINK-1694","MEAN_ANOMALY":"268.1121","REF_FRAME":"TEME","SITE":"AFETR","TLE_LINE2":"2 46544  53.0547 104.4450 0001481  92.0038 268.1121 15.06400738 59901","REV_AT_EPOCH":"5990","MEAN_MOTION":"15.06400738","GP_ID":"188525489","COUNTRY_CODE":"US","APOAPSIS":"548.237"},{"ARG_OF_PERICENTER":"80.6909","FILE":"3192905","TIME_SYSTEM":"UTC","RA_OF_ASC_NODE":"121.0583","TLE_LINE1":"1 46545U 20070P   21303.20943420  .00001572  00000-0  12442-3 0  9997","CENTER_NAME":"EARTH","RCS_SIZE":"LARGE","NORAD_CAT_ID":"46545","MEAN_ELEMENT_THEORY":"SGP4","OBJECT_ID":"2020-070P","MEAN_MOTION_DDOT":"0.0000000000000","SEMIMAJOR_AXIS":"6925.361","LAUNCH_DATE":"2020-10-06","EPHEMERIS_TYPE":"0","ECCENTRICITY":"0.00016330","OBJECT_TYPE":"PAYLOAD","DECAY_DATE":null,"APOAPSIS":"548.356","COUNTRY_CODE":"US","GP_ID":"188516031","MEAN_MOTION":"15.06396089","TLE_LINE2":"2 46545  53.0543 121.0583 0001633  80.6909 279.4265 15.06396089 59625","REV_AT_EPOCH":"5962","SITE":"AFETR","REF_FRAME":"TEME","MEAN_ANOMALY":"279.4265","OBJECT_NAME":"STARLINK-1696","BSTAR":"0.00012442000000","CLASSIFICATION_TYPE":"U","ELEMENT_SET_NO":"999","PERIOD":"95.592","PERIAPSIS":"546.095","MEAN_MOTION_DOT":"0.00001572","INCLINATION":"53.0543","EPOCH":"2021-10-30T05:01:35.114880"},{"MEAN_MOTION_DOT":"0.00000061","PERIAPSIS":"545.831","ELEMENT_SET_NO":"999","PERIOD":"95.592","EPOCH":"2021-10-30T04:40:21.493344","INCLINATION":"53.0537","CLASSIFICATION_TYPE":"U","OBJECT_NAME":"STARLINK-1697","BSTAR":"0.00002303500000","REF_FRAME":"TEME","SITE":"AFETR","MEAN_ANOMALY":"284.0777","MEAN_MOTION":"15.06399494","REV_AT_EPOCH":"5962","TLE_LINE2":"2 46546  53.0537 121.1152 0001999  76.0434 284.0777 15.06399494 59622","APOAPSIS":"548.599","GP_ID":"188516280","COUNTRY_CODE":"US","DECAY_DATE":null,"OBJECT_TYPE":"PAYLOAD","ECCENTRICITY":"0.00019990","LAUNCH_DATE":"2020-10-06","SEMIMAJOR_AXIS":"6925.350","EPHEMERIS_TYPE":"0","OBJECT_ID":"2020-070Q","MEAN_MOTION_DDOT":"0.0000000000000","RCS_SIZE":"LARGE","CENTER_NAME":"EARTH","NORAD_CAT_ID":"46546","MEAN_ELEMENT_THEORY":"SGP4","ARG_OF_PERICENTER":"76.0434","FILE":"3192905","TLE_LINE1":"1 46546U 20070Q   21303.19469321  .00000061  00000-0  23035-4 0  9992","RA_OF_ASC_NODE":"121.1152","TIME_SYSTEM":"UTC"},{"GP_ID":"188525459","COUNTRY_CODE":"US","APOAPSIS":"548.439","REV_AT_EPOCH":"5972","TLE_LINE2":"2 46547  53.0535 118.9039 0001736  89.3523 270.7665 15.06392566 59726","MEAN_MOTION":"15.06392566","MEAN_ANOMALY":"270.7665","REF_FRAME":"TEME","SITE":"AFETR","BSTAR":"-0.00002450600000","OBJECT_NAME":"STARLINK-1698","CLASSIFICATION_TYPE":"U","EPOCH":"2021-10-30T16:31:35.438304","INCLINATION":"53.0535","PERIAPSIS":"546.034","MEAN_MOTION_DOT":"-0.00000647","ELEMENT_SET_NO":"999","PERIOD":"95.593","TLE_LINE1":"1 46547U 20070R   21303.68860461 -.00000647  00000-0 -24506-4 0  9993","TIME_SYSTEM":"UTC","RA_OF_ASC_NODE":"118.9039","ARG_OF_PERICENTER":"89.3523","FILE":"3193274","NORAD_CAT_ID":"46547","MEAN_ELEMENT_THEORY":"SGP4","RCS_SIZE":"LARGE","CENTER_NAME":"EARTH","MEAN_MOTION_DDOT":"0.0000000000000","OBJECT_ID":"2020-070R","EPHEMERIS_TYPE":"0","SEMIMAJOR_AXIS":"6925.371","LAUNCH_DATE":"2020-10-06","OBJECT_TYPE":"PAYLOAD","ECCENTRICITY":"0.00017360","DECAY_DATE":null},{"LAUNCH_DATE":"2020-10-06","SEMIMAJOR_AXIS":"6925.316","EPHEMERIS_TYPE":"0","OBJECT_ID":"2020-070S","MEAN_MOTION_DDOT":"0.0000000000000","DECAY_DATE":null,"OBJECT_TYPE":"PAYLOAD","ECCENTRICITY":"0.00017030","ARG_OF_PERICENTER":"81.0647","FILE":"3192905","TLE_LINE1":"1 46548U 20070S   21303.23522411  .00002153  00000-0  16332-3 0  9994","TIME_SYSTEM":"UTC","RA_OF_ASC_NODE":"120.9484","RCS_SIZE":"LARGE","CENTER_NAME":"EARTH","NORAD_CAT_ID":"46548","MEAN_ELEMENT_THEORY":"SGP4","CLASSIFICATION_TYPE":"U","OBJECT_NAME":"STARLINK-1699","BSTAR":"0.00016332000000","PERIAPSIS":"546.001","MEAN_MOTION_DOT":"0.00002153","PERIOD":"95.591","ELEMENT_SET_NO":"999","EPOCH":"2021-10-30T05:38:43.363104","INCLINATION":"53.0551","APOAPSIS":"548.360","GP_ID":"188515280","COUNTRY_CODE":"US","REF_FRAME":"TEME","SITE":"AFETR","MEAN_ANOMALY":"279.0534","MEAN_MOTION":"15.06410769","TLE_LINE2":"2 46548  53.0551 120.9484 0001703  81.0647 279.0534 15.06410769 59635","REV_AT_EPOCH":"5963"},{"CLASSIFICATION_TYPE":"U","OBJECT_NAME":"STARLINK-1700","BSTAR":"-0.00004373200000","PERIOD":"95.592","ELEMENT_SET_NO":"999","PERIAPSIS":"545.985","MEAN_MOTION_DOT":"-0.00000933","INCLINATION":"53.0515","EPOCH":"2021-10-30T04:44:18.257856","APOAPSIS":"548.457","COUNTRY_CODE":"US","GP_ID":"188515532","SITE":"AFETR","REF_FRAME":"TEME","MEAN_ANOMALY":"277.1434","MEAN_MOTION":"15.06397597","REV_AT_EPOCH":"5962","TLE_LINE2":"2 46549  53.0515 121.1052 0001785  82.9758 277.1434 15.06397597 59623","LAUNCH_DATE":"2020-10-06","SEMIMAJOR_AXIS":"6925.356","EPHEMERIS_TYPE":"0","OBJECT_ID":"2020-070T","MEAN_MOTION_DDOT":"0.0000000000000","DECAY_DATE":null,"ECCENTRICITY":"0.00017850","OBJECT_TYPE":"PAYLOAD","ARG_OF_PERICENTER":"82.9758","FILE":"3192905","RA_OF_ASC_NODE":"121.1052","TIME_SYSTEM":"UTC","TLE_LINE1":"1 46549U 20070T   21303.19743354 -.00000933  00000-0 -43732-4 0  9992","CENTER_NAME":"EARTH","RCS_SIZE":"LARGE","NORAD_CAT_ID":"46549","MEAN_ELEMENT_THEORY":"SGP4"},{"RA_OF_ASC_NODE":"122.0617","TIME_SYSTEM":"UTC","TLE_LINE1":"1 46550U 20070U   21302.98459009 -.00000036  00000-0  16473-4 0  9996","FILE":"3192905","ARG_OF_PERICENTER":"85.6476","NORAD_CAT_ID":"46550","MEAN_ELEMENT_THEORY":"SGP4","CENTER_NAME":"EARTH","RCS_SIZE":"LARGE","EPHEMERIS_TYPE":"0","SEMIMAJOR_AXIS":"6925.351","LAUNCH_DATE":"2020-10-06","MEAN_MOTION_DDOT":"0.0000000000000","OBJECT_ID":"2020-070U","DECAY_DATE":null,"ECCENTRICITY":"0.00018670","OBJECT_TYPE":"PAYLOAD","COUNTRY_CODE":"US","GP_ID":"188515781","APOAPSIS":"548.509","MEAN_ANOMALY":"274.4727","SITE":"AFETR","REF_FRAME":"TEME","REV_AT_EPOCH":"5959","TLE_LINE2":"2 46550  53.0539 122.0617 0001867  85.6476 274.4727 15.06399226 59598","MEAN_MOTION":"15.06399226","CLASSIFICATION_TYPE":"U","BSTAR":"0.00001647300000","OBJECT_NAME":"STARLINK-1701","EPOCH":"2021-10-29T23:37:48.583776","INCLINATION":"53.0539","ELEMENT_SET_NO":"999","PERIOD":"95.592","PERIAPSIS":"545.923","MEAN_MOTION_DOT":"-0.00000036"},{"MEAN_MOTION":"15.06401719","REV_AT_EPOCH":"5987","TLE_LINE2":"2 46552  53.0525 103.3753 0001731  86.8201 273.2986 15.06401719 59873","SITE":"AFETR","REF_FRAME":"TEME","MEAN_ANOMALY":"273.2986","APOAPSIS":"548.407","COUNTRY_CODE":"US","GP_ID":"188525240","ELEMENT_SET_NO":"999","PERIOD":"95.592","PERIAPSIS":"546.010","MEAN_MOTION_DOT":"-0.00000164","INCLINATION":"53.0525","EPOCH":"2021-10-30T19:20:46.777344","OBJECT_NAME":"STARLINK-1649","BSTAR":"0.00000787110000","CLASSIFICATION_TYPE":"U","CENTER_NAME":"EARTH","RCS_SIZE":"LARGE","MEAN_ELEMENT_THEORY":"SGP4","NORAD_CAT_ID":"46552","FILE":"3193242","ARG_OF_PERICENTER":"86.8201","RA_OF_ASC_NODE":"103.3753","TIME_SYSTEM":"UTC","TLE_LINE1":"1 46552U 20070W   21303.80609696 -.00000164  00000-0  78711-5 0  9995","ECCENTRICITY":"0.00017310","OBJECT_TYPE":"PAYLOAD","DECAY_DATE":null,"OBJECT_ID":"2020-070W","MEAN_MOTION_DDOT":"0.0000000000000","LAUNCH_DATE":"2020-10-06","SEMIMAJOR_AXIS":"6925.343","EPHEMERIS_TYPE":"0"}];
